{"type": "FeatureCollection", "features": [{"type": "Feature", "properties": {"norad_id": 66454, "name": "VIASAT-3 F2", "group": "last-30-days", "lat": -4.9233066927678975, "lon": -133.52576933356812, "alt_km": 19926.541865280775, "timestamp": "2025-12-14T22:38:39.515606+00:00", "meta": {"OBJECT_NAME": "VIASAT-3 F2", "OBJECT_ID": "2025-261A", "EPOCH": "2025-12-12T22:24:17.478432", "MEAN_MOTION": 2.09869596, "ECCENTRICITY": 0.2249784, "INCLINATION": 5.3891, "RA_OF_ASC_NODE": 292.3457, "ARG_OF_PERICENTER": 185.8732, "MEAN_ANOMALY": 3.755, "EPHEMERIS_TYPE": 0, "CLASSIFICATION_TYPE": "U", "NORAD_CAT_ID": 66454, "ELEMENT_SET_NO": 999, "REV_AT_EPOCH": 64, "BSTAR": 0, "MEAN_MOTION_DOT": -8.1e-07, "MEAN_MOTION_DDOT": 0}, "tle": {"line1": "1 66454U 25261A   25346.93353563 -.00000081  00000+0  00000+0 0  9996", "line2": "2 66454   5.3891 292.3457 2249784 185.8732   3.7550  2.09869596   649"}}, "geometry": {"type": "Point", "coordinates": [-133.52576933356812, -4.9233066927678975]}}, {"type": "Feature", "properties": {"norad_id": 66455, "name": "ATLAS 5 CENTAUR R/B", "group": "last-30-days", "lat": -0.9457335252974878, "lon": -77.3767002121885, "alt_km": 23329.484179055697, "timestamp": "2025-12-14T22:38:39.515650+00:00", "meta": {"OBJECT_NAME": "ATLAS 5 CENTAUR R/B", "OBJECT_ID": "2025-261B", "EPOCH": "2025-12-14T02:09:38.776896", "MEAN_MOTION": 2.28260018, "ECCENTRICITY": 0.23294239, "INCLINATION": 6.1441, "RA_OF_ASC_NODE": 291.4807, "ARG_OF_PERICENTER": 186.7554, "MEAN_ANOMALY": 174.301, "EPHEMERIS_TYPE": 0, "CLASSIFICATION_TYPE": "U", "NORAD_CAT_ID": 66455, "ELEMENT_SET_NO": 999, "REV_AT_EPOCH": 68, "BSTAR": 0, "MEAN_MOTION_DOT": -7.2e-07, "MEAN_MOTION_DDOT": 0}, "tle": {"line1": "1 66455U 25261B   25348.09003214 -.00000072  00000+0  00000+0 0  9991", "line2": "2 66455   6.1441 291.4807 2329423 186.7554 174.3010  2.28260018   685"}}, "geometry": {"type": "Point", "coordinates": [-77.3767002121885, -0.9457335252974878]}}, {"type": "Feature", "properties": {"norad_id": 66456, "name": "STARLINK-35643", "group": "last-30-days", "lat": 20.592681422532678, "lon": -144.86758817748515, "alt_km": 440.83356099903904, "timestamp": "2025-12-14T22:38:39.515669+00:00", "meta": {"OBJECT_NAME": "STARLINK-35643", "OBJECT_ID": "2025-262A", "EPOCH": "2025-12-14T06:26:32.770176", "MEAN_MOTION": 15.40673299, "ECCENTRICITY": 0.00013667, "INCLINATION": 42.9981, "RA_OF_ASC_NODE": 62.8042, "ARG_OF_PERICENTER": 246.4553, "MEAN_ANOMALY": 113.616, "EPHEMERIS_TYPE": 0, "CLASSIFICATION_TYPE": "U", "NORAD_CAT_ID": 66456, "ELEMENT_SET_NO": 999, "REV_AT_EPOCH": 579, "BSTAR": 0.0013731422, "MEAN_MOTION_DOT": 0.00057438, "MEAN_MOTION_DDOT": 0}, "tle": {"line1": "1 66456U 25262A   25348.26843484  .00057438  00000+0  13731-2 0  9998", "line2": "2 66456  42.9981  62.8042 0001366 246.4553 113.6160 15.40673299  5794"}}, "geometry": {"type": "Point", "coordinates": [-144.86758817748515, 20.592681422532678]}}, {"type": "Feature", "properties": {"norad_id": 66457, "name": "STARLINK-35466", "group": "last-30-days", "lat": 4.139919552850596, "lon": -125.6022660969885, "alt_km": 442.74036610232633, "timestamp": "2025-12-14T22:38:39.515683+00:00", "meta": {"OBJECT_NAME": "STARLINK-35466", "OBJECT_ID": "2025-262B", "EPOCH": "2025-12-13T22:33:20.355552", "MEAN_MOTION": 15.40671751, "ECCENTRICITY": 0.00024231, "INCLINATION": 42.9963, "RA_OF_ASC_NODE": 64.639, "ARG_OF_PERICENTER": 88.46, "MEAN_ANOMALY": 271.6534, "EPHEMERIS_TYPE": 0, "CLASSIFICATION_TYPE": "U", "NORAD_CAT_ID": 66457, "ELEMENT_SET_NO": 999, "REV_AT_EPOCH": 574, "BSTAR": 0.0011376506, "MEAN_MOTION_DOT": 0.00047472, "MEAN_MOTION_DDOT": 0}, "tle": {"line1": "1 66457U 25262B   25347.93981893  .00047472  00000+0  11377-2 0  9990", "line2": "2 66457  42.9963  64.6390 0002423  88.4600 271.6534 15.40671751  5749"}}, "geometry": {"type": "Point", "coordinates": [-125.6022660969885, 4.139919552850596]}}, {"type": "Feature", "properties": {"norad_id": 66458, "name": "STARLINK-35684", "group": "last-30-days", "lat": 12.45203006119202, "lon": -134.82326004715807, "alt_km": 441.6665915884514, "timestamp": "2025-12-14T22:38:39.515698+00:00", "meta": {"OBJECT_NAME": "STARLINK-35684", "OBJECT_ID": "2025-262C", "EPOCH": "2025-12-14T06:23:19.275648", "MEAN_MOTION": 15.4072028, "ECCENTRICITY": 0.00013262, "INCLINATION": 43, "RA_OF_ASC_NODE": 62.7886, "ARG_OF_PERICENTER": 73.0033, "MEAN_ANOMALY": 287.0969, "EPHEMERIS_TYPE": 0, "CLASSIFICATION_TYPE": "U", "NORAD_CAT_ID": 66458, "ELEMENT_SET_NO": 999, "REV_AT_EPOCH": 579, "BSTAR": 0.0014126423, "MEAN_MOTION_DOT": 0.00059205, "MEAN_MOTION_DDOT": 0}, "tle": {"line1": "1 66458U 25262C   25348.26619532  .00059205  00000+0  14126-2 0  9998", "line2": "2 66458  43.0000  62.7886 0001326  73.0033 287.0969 15.40720280  5794"}}, "geometry": {"type": "Point", "coordinates": [-134.82326004715807, 12.45203006119202]}}, {"type": "Feature", "properties": {"norad_id": 66459, "name": "STARLINK-35449", "group": "last-30-days", "lat": -4.325899683990394, "lon": -116.52199826452481, "alt_km": 444.31009230129075, "timestamp": "2025-12-14T22:38:39.515710+00:00", "meta": {"OBJECT_NAME": "STARLINK-35449", "OBJECT_ID": "2025-262D", "EPOCH": "2025-12-14T06:16:52.709952", "MEAN_MOTION": 15.40697499, "ECCENTRICITY": 0.00011243, "INCLINATION": 42.9987, "RA_OF_ASC_NODE": 62.7517, "ARG_OF_PERICENTER": 78.5973, "MEAN_ANOMALY": 281.501, "EPHEMERIS_TYPE": 0, "CLASSIFICATION_TYPE": "U", "NORAD_CAT_ID": 66459, "ELEMENT_SET_NO": 999, "REV_AT_EPOCH": 579, "BSTAR": 0.0013782293, "MEAN_MOTION_DOT": 0.000577, "MEAN_MOTION_DDOT": 0}, "tle": {"line1": "1 66459U 25262D   25348.26172118  .00057700  00000+0  13782-2 0  9998", "line2": "2 66459  42.9987  62.7517 0001124  78.5973 281.5010 15.40697499  5798"}}, "geometry": {"type": "Point", "coordinates": [-116.52199826452481, -4.325899683990394]}}, {"type": "Feature", "properties": {"norad_id": 66460, "name": "STARLINK-35424", "group": "last-30-days", "lat": -12.60217732674052, "lon": -107.32149014200174, "alt_km": 445.4401358493724, "timestamp": "2025-12-14T22:38:39.515721+00:00", "meta": {"OBJECT_NAME": "STARLINK-35424", "OBJECT_ID": "2025-262E", "EPOCH": "2025-12-14T06:13:38.731584", "MEAN_MOTION": 15.40660029, "ECCENTRICITY": 8.067e-05, "INCLINATION": 42.9936, "RA_OF_ASC_NODE": 62.7369, "ARG_OF_PERICENTER": 307.5059, "MEAN_ANOMALY": 52.5724, "EPHEMERIS_TYPE": 0, "CLASSIFICATION_TYPE": "U", "NORAD_CAT_ID": 66460, "ELEMENT_SET_NO": 999, "REV_AT_EPOCH": 579, "BSTAR": 0.0011196487, "MEAN_MOTION_DOT": 0.00046691, "MEAN_MOTION_DDOT": 0}, "tle": {"line1": "1 66460U 25262E   25348.25947606  .00046691  00000+0  11196-2 0  9995", "line2": "2 66460  42.9936  62.7369 0000806 307.5059  52.5724 15.40660029  5792"}}, "geometry": {"type": "Point", "coordinates": [-107.32149014200174, -12.60217732674052]}}, {"type": "Feature", "properties": {"norad_id": 66461, "name": "STARLINK-35132", "group": "last-30-days", "lat": -20.65312252839377, "lon": -97.384508379888, "alt_km": 444.73029933026373, "timestamp": "2025-12-14T22:38:39.515734+00:00", "meta": {"OBJECT_NAME": "STARLINK-35132", "OBJECT_ID": "2025-262F", "EPOCH": "2025-12-14T06:10:25.228416", "MEAN_MOTION": 15.40680665, "ECCENTRICITY": 0.00030817, "INCLINATION": 43.007, "RA_OF_ASC_NODE": 62.7174, "ARG_OF_PERICENTER": 266.2071, "MEAN_ANOMALY": 93.8433, "EPHEMERIS_TYPE": 0, "CLASSIFICATION_TYPE": "U", "NORAD_CAT_ID": 66461, "ELEMENT_SET_NO": 999, "REV_AT_EPOCH": 579, "BSTAR": 0.0019017995, "MEAN_MOTION_DOT": 0.00079931, "MEAN_MOTION_DDOT": 0}, "tle": {"line1": "1 66461U 25262F   25348.25723644  .00079931  00000+0  19018-2 0  9994", "line2": "2 66461  43.0070  62.7174 0003081 266.2071  93.8433 15.40680665  5794"}}, "geometry": {"type": "Point", "coordinates": [-97.384508379888, -20.65312252839377]}}, {"type": "Feature", "properties": {"norad_id": 66462, "name": "STARLINK-35499", "group": "last-30-days", "lat": -28.131649503752897, "lon": -86.2456935492915, "alt_km": 445.8809598473963, "timestamp": "2025-12-14T22:38:39.515745+00:00", "meta": {"OBJECT_NAME": "STARLINK-35499", "OBJECT_ID": "2025-262G", "EPOCH": "2025-12-14T06:07:11.433216", "MEAN_MOTION": 15.4071747, "ECCENTRICITY": 0.00032077, "INCLINATION": 42.9912, "RA_OF_ASC_NODE": 62.6986, "ARG_OF_PERICENTER": 141.844, "MEAN_ANOMALY": 218.2644, "EPHEMERIS_TYPE": 0, "CLASSIFICATION_TYPE": "U", "NORAD_CAT_ID": 66462, "ELEMENT_SET_NO": 999, "REV_AT_EPOCH": 579, "BSTAR": 0.0012175979, "MEAN_MOTION_DOT": 0.00050934, "MEAN_MOTION_DDOT": 0}, "tle": {"line1": "1 66462U 25262G   25348.25499344  .00050934  00000+0  12176-2 0  9992", "line2": "2 66462  42.9912  62.6986 0003207 141.8440 218.2644 15.40717470  5798"}}, "geometry": {"type": "Point", "coordinates": [-86.2456935492915, -28.131649503752897]}}, {"type": "Feature", "properties": {"norad_id": 66463, "name": "STARLINK-35463", "group": "last-30-days", "lat": -39.31957517598975, "lon": -59.80992709701652, "alt_km": 446.5467740742415, "timestamp": "2025-12-14T22:38:39.515756+00:00", "meta": {"OBJECT_NAME": "STARLINK-35463", "OBJECT_ID": "2025-262H", "EPOCH": "2025-12-14T06:00:44.746560", "MEAN_MOTION": 15.40655179, "ECCENTRICITY": 9.815e-05, "INCLINATION": 42.9991, "RA_OF_ASC_NODE": 62.6641, "ARG_OF_PERICENTER": 249.3838, "MEAN_ANOMALY": 110.6914, "EPHEMERIS_TYPE": 0, "CLASSIFICATION_TYPE": "U", "NORAD_CAT_ID": 66463, "ELEMENT_SET_NO": 999, "REV_AT_EPOCH": 579, "BSTAR": 0.0010765274, "MEAN_MOTION_DOT": 0.00044863, "MEAN_MOTION_DDOT": 0}, "tle": {"line1": "1 66463U 25262H   25348.25051790  .00044863  00000+0  10765-2 0  9998", "line2": "2 66463  42.9991  62.6641 0000981 249.3838 110.6914 15.40655179  5797"}}, "geometry": {"type": "Point", "coordinates": [-59.80992709701652, -39.31957517598975]}}]}